{
  "type": "FeatureCollection",
  "features": [
    {
      "type": "Feature",
      "properties": {
        "norad_id": 61182,
        "name": "GSAT0232 (GALILEO 32)",
        "group": "gnss",
        "lat": -25.289393115822616,
        "lon": -152.5108295103023,
        "alt_km": 23228.362435898922,
        "timestamp": "2025-12-06T05:40:09.484791+00:00",
        "meta_object_name": "GSAT0232 (GALILEO 32)",
        "meta_object_id": "2024-167A",
        "meta_epoch": "2025-12-04T05:35:38.594112",
        "meta_mean_motion": 1.70473104,
        "meta_eccentricity": 0.0002198,
        "meta_inclination": 55.2442,
        "meta_ra_of_asc_node": 226.6646,
        "meta_arg_of_pericenter": 213.7296,
        "meta_mean_anomaly": 325.6534,
        "meta_ephemeris_type": 0,
        "meta_classification_type": "U",
        "meta_norad_cat_id": 61182,
        "meta_element_set_no": 999,
        "meta_rev_at_epoch": 755,
        "meta_bstar": 0,
        "meta_mean_motion_dot": 4.1e-07,
        "meta_mean_motion_ddot": 0,
        "tle_line1": "1 61182U 24167A   25338.23308558  .00000041  00000+0  00000+0 0  9996",
        "tle_line2": "2 61182  55.2442 226.6646 0002198 213.7296 325.6534  1.70473104  7556"
      },
      "geometry": {
        "type": "Point",
        "coordinates": [
          -152.5108295103023,
          -25.289393115822616
        ]
      }
    },
    {
      "type": "Feature",
      "properties": {
        "norad_id": 61183,
        "name": "GSAT0226 (GALILEO 31)",
        "group": "gnss",
        "lat": 54.32208031552648,
        "lon": -58.36347959944611,
        "alt_km": 23215.43053650101,
        "timestamp": "2025-12-06T05:40:09.484803+00:00",
        "meta_object_name": "GSAT0226 (GALILEO 31)",
        "meta_object_id": "2024-167B",
        "meta_epoch": "2025-11-26T08:32:06.516672",
        "meta_mean_motion": 1.70473481,
        "meta_eccentricity": 6.079e-05,
        "meta_inclination": 55.246,
        "meta_ra_of_asc_node": 226.8867,
        "meta_arg_of_pericenter": 154.246,
        "meta_mean_anomaly": 343.2327,
        "meta_ephemeris_type": 0,
        "meta_classification_type": "U",
        "meta_norad_cat_id": 61183,
        "meta_element_set_no": 999,
        "meta_rev_at_epoch": 739,
        "meta_bstar": 0,
        "meta_mean_motion_dot": 3e-07,
        "meta_mean_motion_ddot": 0,
        "tle_line1": "1 61183U 24167B   25330.35563098  .00000030  00000+0  00000+0 0  9992",
        "tle_line2": "2 61183  55.2460 226.8867 0000607 154.2460 343.2327  1.70473481  7395"
      },
      "geometry": {
        "type": "Point",
        "coordinates": [
          -58.36347959944611,
          54.32208031552648
        ]
      }
    },
    {
      "type": "Feature",
      "properties": {
        "norad_id": 61186,
        "name": "BEIDOU-3 M25 (C47)",
        "group": "gnss",
        "lat": 41.69527645449218,
        "lon": -11.879366072134166,
        "alt_km": 21530.811587531323,
        "timestamp": "2025-12-06T05:40:09.484814+00:00",
        "meta_object_name": "BEIDOU-3 M25 (C47)",
        "meta_object_id": "2024-168B",
        "meta_epoch": "2025-12-05T05:13:31.135872",
        "meta_mean_motion": 1.86229714,
        "meta_eccentricity": 0.00054853,
        "meta_inclination": 54.6489,
        "meta_ra_of_asc_node": 308.9806,
        "meta_arg_of_pericenter": 294.5401,
        "meta_mean_anomaly": 157.173,
        "meta_ephemeris_type": 0,
        "meta_classification_type": "U",
        "meta_norad_cat_id": 61186,
        "meta_element_set_no": 999,
        "meta_rev_at_epoch": 817,
        "meta_bstar": 0,
        "meta_mean_motion_dot": -7e-07,
        "meta_mean_motion_ddot": 0,
        "tle_line1": "1 61186U 24168B   25339.21772148 -.00000070  00000+0  00000+0 0  9993",
        "tle_line2": "2 61186  54.6489 308.9806 0005485 294.5401 157.1730  1.86229714  8171"
      },
      "geometry": {
        "type": "Point",
        "coordinates": [
          -11.879366072134166,
          41.69527645449218
        ]
      }
    },
    {
      "type": "Feature",
      "properties": {
        "norad_id": 61187,
        "name": "BEIDOU-3 M27 (C49)",
        "group": "gnss",
        "lat": -7.776434813794011,
        "lon": 134.46721759703215,
        "alt_km": 21534.34296612297,
        "timestamp": "2025-12-06T05:40:09.484825+00:00",
        "meta_object_name": "BEIDOU-3 M27 (C49)",
        "meta_object_id": "2024-168C",
        "meta_epoch": "2025-12-05T03:27:10.204704",
        "meta_mean_motion": 1.86229855,
        "meta_eccentricity": 0.00022725,
        "meta_inclination": 54.6444,
        "meta_ra_of_asc_node": 308.9668,
        "meta_arg_of_pericenter": 330.3583,
        "meta_mean_anomaly": 206.7783,
        "meta_ephemeris_type": 0,
        "meta_classification_type": "U",
        "meta_norad_cat_id": 61187,
        "meta_element_set_no": 999,
        "meta_rev_at_epoch": 564,
        "meta_bstar": 0,
        "meta_mean_motion_dot": -7e-07,
        "meta_mean_motion_ddot": 0,
        "tle_line1": "1 61187U 24168C   25339.14386811 -.00000070  00000+0  00000+0 0  9994",
        "tle_line2": "2 61187  54.6444 308.9668 0002272 330.3583 206.7783  1.86229855  5644"
      },
      "geometry": {
        "type": "Point",
        "coordinates": [
          134.46721759703215,
          -7.776434813794011
        ]
      }
    },
    {
      "type": "Feature",
      "properties": {
        "norad_id": 62339,
        "name": "GPS BIII-7  (PRN 01)",
        "group": "gnss",
        "lat": -47.620979863146665,
        "lon": -147.6406276580505,
        "alt_km": 20192.054061316223,
        "timestamp": "2025-12-06T05:40:09.484839+00:00",
        "meta_object_name": "GPS BIII-7  (PRN 01)",
        "meta_object_id": "2024-242A",
        "meta_epoch": "2025-12-04T03:38:20.685120",
        "meta_mean_motion": 2.00567235,
        "meta_eccentricity": 0.0011725,
        "meta_inclination": 54.9261,
        "meta_ra_of_asc_node": 342.0885,
        "meta_arg_of_pericenter": 343.4986,
        "meta_mean_anomaly": 195.9397,
        "meta_ephemeris_type": 0,
        "meta_classification_type": "U",
        "meta_norad_cat_id": 62339,
        "meta_element_set_no": 999,
        "meta_rev_at_epoch": 734,
        "meta_bstar": 0,
        "meta_mean_motion_dot": -7.2e-07,
        "meta_mean_motion_ddot": 0,
        "tle_line1": "1 62339U 24242A   25338.15162830 -.00000072  00000+0  00000+0 0  9992",
        "tle_line2": "2 62339  54.9261 342.0885 0011725 343.4986 195.9397  2.00567235  7342"
      },
      "geometry": {
        "type": "Point",
        "coordinates": [
          -147.6406276580505,
          -47.620979863146665
        ]
      }
    },
    {
      "type": "Feature",
      "properties": {
        "norad_id": 62850,
        "name": "NVS-02 (IRNSS-1K)",
        "group": "gnss",
        "lat": 0.07530893199689145,
        "lon": 149.8062301337738,
        "alt_km": 29788.12837495191,
        "timestamp": "2025-12-06T05:40:09.484850+00:00",
        "meta_object_name": "NVS-02 (IRNSS-1K)",
        "meta_object_id": "2025-020A",
        "meta_epoch": "2025-12-05T04:41:35.643552",
        "meta_mean_motion": 2.1758661,
        "meta_eccentricity": 0.73477968,
        "meta_inclination": 21.0036,
        "meta_ra_of_asc_node": 330.3881,
        "meta_arg_of_pericenter": 21.3409,
        "meta_mean_anomaly": 357.8218,
        "meta_ephemeris_type": 0,
        "meta_classification_type": "U",
        "meta_norad_cat_id": 62850,
        "meta_element_set_no": 999,
        "meta_rev_at_epoch": 675,
        "meta_bstar": 0.00043450225,
        "meta_mean_motion_dot": 6.73e-06,
        "meta_mean_motion_ddot": 0,
        "tle_line1": "1 62850U 25020A   25339.19555143  .00000673  00000+0  43450-3 0  9999",
        "tle_line2": "2 62850  21.0036 330.3881 7347796  21.3409 357.8218  2.17586610  6751"
      },
      "geometry": {
        "type": "Point",
        "coordinates": [
          149.8062301337738,
          0.07530893199689145
        ]
      }
    },
    {
      "type": "Feature",
      "properties": {
        "norad_id": 63130,
        "name": "COSMOS 2584 (704K)",
        "group": "gnss",
        "lat": -26.95096896481227,
        "lon": 65.65409156337459,
        "alt_km": 19142.494660055527,
        "timestamp": "2025-12-06T05:40:09.484863+00:00",
        "meta_object_name": "COSMOS 2584 (704K)",
        "meta_object_id": "2025-042A",
        "meta_epoch": "2025-11-26T10:06:10.904256",
        "meta_mean_motion": 2.13103062,
        "meta_eccentricity": 0.00075218,
        "meta_inclination": 64.9668,
        "meta_ra_of_asc_node": 79.7019,
        "meta_arg_of_pericenter": 212.3772,
        "meta_mean_anomaly": 147.585,
        "meta_ephemeris_type": 0,
        "meta_classification_type": "U",
        "meta_norad_cat_id": 63130,
        "meta_element_set_no": 999,
        "meta_rev_at_epoch": 572,
        "meta_bstar": 0,
        "meta_mean_motion_dot": 1.8e-07,
        "meta_mean_motion_ddot": 0,
        "tle_line1": "1 63130U 25042A   25330.42095954  .00000018  00000+0  00000+0 0  9994",
        "tle_line2": "2 63130  64.9668  79.7019 0007521 212.3772 147.5850  2.13103062  5728"
      },
      "geometry": {
        "type": "Point",
        "coordinates": [
          65.65409156337459,
          -26.95096896481227
        ]
      }
    }
  ]
}